#aV2019 11 20  0  0  0.00000000     288 DD+AD WGS84 FIT  NGA
## 2080 259200.00000000   300.00000000 58807 0.0000000000000
+   32     1  2  3  4  5  6  7  8  9 10 11 12 13 14 15 16 17
+         18 19 20 21 22 23 24 25 26 27 28 29 30 31 32  0  0
+          0  0  0  0  0  0  0  0  0  0  0  0  0  0  0  0  0
+          0  0  0  0  0  0  0  0  0  0  0  0  0  0  0  0  0
+          0  0  0  0  0  0  0  0  0  0  0  0  0  0  0  0  0
++         2  2  2  2  2  2  2  2  2  2  2  2  2  2  2  2  2
++         2  2  2  2  2  2  2  2  2  2  2  2  2  2  2  0  0
++         0  0  0  0  0  0  0  0  0  0  0  0  0  0  0  0  0
++         0  0  0  0  0  0  0  0  0  0  0  0  0  0  0  0  0
++         0  0  0  0  0  0  0  0  0  0  0  0  0  0  0  0  0
%c cc cc ccc ccc cccc cccc cccc cccc ccccc ccccc ccccc ccccc
%c cc cc ccc ccc cccc cccc cccc cccc ccccc ccccc ccccc ccccc
%f  0.0000000  0.000000000  0.00000000000  0.000000000000000
%f  0.0000000  0.000000000  0.00000000000  0.000000000000000
%i    0    0    0    0      0      0      0      0         0
%i    0    0    0    0      0      0      0      0         0
/*      NGA, ST. LOUIS,MO.                                  
/*   EPHEMERIS COMPUTED FROM 2 DAYS OF DATA                 
/*   EPOCHA v5 SMOOTHER                                     
/*   G1762 IERS2010 SATAF SATAPC                            
*  2019 11 20 21 55  0.00000000
P  1 -22300.425622 -14384.478369   3032.397854   -203.934811                    
V  1  -2021.894459  -4047.943614 -31619.876385     -0.126111                    
P  2   8651.618402  19513.426588  16505.273128   -350.786205                    
V  2 -17485.672205  -9374.868778  20939.713333     -0.076202                    
P  3 -13596.229278  -8877.609879  20975.060614    -39.800978                    
V  3   3913.964899 -26465.446083  -8552.005933     -0.059863                    
P  4 -25220.058476   4824.393241   6667.654623    -11.228357                    
V  4   6861.915408  -5638.491734  30232.394870     -0.041994                    
P  5   4011.521018  24696.804597  -8746.493828     -3.701106                    
V  5  -3989.492068  10673.228726  28950.073564     -0.004694                    
P  6  -5208.326332  14403.255555  21743.351818   -129.879124                    
V  6 -22222.534653 -16116.803165   5390.339921     -0.118004                    
P  7 -20899.856309  -1518.790321 -16312.441250   -153.081850                    
V  7 -15616.749394 -14261.445391  20503.705567     -0.081627                    
P  8 -13542.658060  -9552.513426 -20767.912873    -14.042791                    
V  8  23816.833310 -11346.262165 -10078.766023     -0.012272                    
P  9 -25028.632189   6203.049722   6326.346224    -88.454700                    
V  9   6210.261797  -5996.269331  30184.086771     -0.096663                    
P 10  11486.063449 -19892.874467 -13071.600663   -142.307933                    
V 10    373.985748  16945.934217 -25553.993528     -0.146937                    
P 11 -24289.588453  -9007.791881  -5566.693041   -442.296602                    
V 11   7274.644882  -3099.477677 -29719.084021      0.111214                    
P 12  10338.068330  14822.319870  19309.062622    181.447038                    
V 12  -5661.063244  24242.695320 -15243.425836     -0.039574                    
P 13   3985.866630  14583.627649 -21958.924428    -31.602616                    
V 13 -26519.643374   7528.427736    259.140399      0.023511                    
P 14   9721.538296 -16813.960199  18361.187662    -49.359391                    
V 14  22039.819192  -5753.128503 -17426.086714      0.021852                    
P 15  15543.151795   8650.609507 -20121.274043   -271.245261                    
V 15 -21313.564869  12974.076201 -10660.297665      0.026983                    
P 16    111.570906 -25261.564098  -7618.167890    -95.133052                    
V 16   4276.437661  -8817.014636  30482.883923     -0.037765                    
P 17 -19302.857978  14786.358248  11016.281968    166.613880                    
V 17 -13141.475192   2904.053029 -28080.262621      0.070078                    
P 18 -19105.245231 -17747.147878  -5803.584503    101.493252                    
V 18   7079.602705   1500.106965 -30465.053615      0.025534                    
P 19 -14056.393428  15569.004360  16010.412745   -237.044934                    
V 19 -20339.933049   4723.459192 -22030.985011      0.051980                    
P 20  14478.245199 -10656.096685 -19593.976430    527.504472                    
V 20   1741.892409  24815.584741 -12466.189774      0.000755                    
P 21  18636.129362  -2974.837626 -17817.178980    -82.986421                    
V 21  19246.188340  15050.360250  17085.536675      0.059077                    
P 22 -12186.882375 -16460.048510  17180.836227   -772.958197                    
V 22   3039.991013 -21361.481123 -18441.757741     -0.024546                    
P 23 -22242.269520  -1891.445535  15024.115137   -154.345171                    
V 23  15875.305187  -9471.769496  22456.220483      0.022624                    
P 24  22458.192357  14529.644023    481.958578     -5.166143                    
V 24  -1116.169102   3144.377960 -31000.107644     -0.005485                    
P 25  15121.704561  -1422.814449  21550.853311    -17.277703                    
V 25  -2946.118951  27731.909142   4114.237933     -0.002368                    
P 26   4477.610881 -25898.417360   2960.546052     88.615554                    
V 26   2979.971277   4094.544085  31324.728177      0.083363                    
P 27  -1022.722372 -15424.338387 -21668.929011   -126.125239                    
V 27  25261.052391 -10215.476559   6413.392741     -0.118672                    
P 28 -12271.748534  20253.744340 -11541.415272    754.225152                    
V 28   1339.281433 -15595.345846 -27251.698391     -0.016269                    
P 29  25233.732817  -3563.751120   7498.913643     38.998324                    
V 29  -8374.072831   4928.849846  30376.025200     -0.100861                    
P 30 -13352.565144   9015.372291 -21108.053090    -88.302524                    
V 30 -20577.070181 -17376.418846   5392.716275     -0.084724                    
P 31   3755.775079 -15768.029566  20935.413911     -4.536958                    
V 31  21539.073232  15862.107106   8525.717670     -0.025783                    
P 32  18364.126103 -16032.283704  10443.655696    131.288828                    
V 32  13193.391815  -2830.140982 -27829.909586      0.120007                    
EOF
